{
  "type": "FeatureCollection",
  "features": [
    {
      "type": "Feature",
      "properties": {
        "norad_id": 64751,
        "name": "PROGRESS-MS 31",
        "group": "stations",
        "lat": 41.49723566295834,
        "lon": -74.43777186909104,
        "alt_km": 413.3982861059367,
        "timestamp": "2025-12-11T05:00:25.096026+00:00",
        "meta_object_name": "PROGRESS-MS 31",
        "meta_object_id": "2025-146A",
        "meta_epoch": "2025-12-10T22:17:24.112320",
        "meta_mean_motion": 15.49489378,
        "meta_eccentricity": 0.00033509,
        "meta_inclination": 51.6309,
        "meta_ra_of_asc_node": 151.4463,
        "meta_arg_of_pericenter": 232.8214,
        "meta_mean_anomaly": 127.2469,
        "meta_ephemeris_type": 0,
        "meta_classification_type": "U",
        "meta_norad_cat_id": 64751,
        "meta_element_set_no": 999,
        "meta_rev_at_epoch": 675,
        "meta_bstar": 0.00026508679,
        "meta_mean_motion_dot": 0.00014434,
        "meta_mean_motion_ddot": 0,
        "tle_line1": "1 64751U 25146A   25344.92875130  .00014434  00000+0  26509-3 0  9994",
        "tle_line2": "2 64751  51.6309 151.4463 0003350 232.8214 127.2469 15.49489378  6753"
      },
      "geometry": {
        "type": "Point",
        "coordinates": [
          -74.43777186909104,
          41.49723566295834
        ]
      }
    },
    {
      "type": "Feature",
      "properties": {
        "norad_id": 64786,
        "name": "TIANZHOU-9",
        "group": "stations",
        "lat": 2.6449155535069364,
        "lon": -156.9968566422638,
        "alt_km": 395.04212835475846,
        "timestamp": "2025-12-11T05:00:25.096036+00:00",
        "meta_object_name": "TIANZHOU-9",
        "meta_object_id": "2025-149A",
        "meta_epoch": "2025-12-10T20:34:09.975360",
        "meta_mean_motion": 15.59054125,
        "meta_eccentricity": 0.0008705,
        "meta_inclination": 41.4684,
        "meta_ra_of_asc_node": 28.1364,
        "meta_arg_of_pericenter": 14.9689,
        "meta_mean_anomaly": 345.1405,
        "meta_ephemeris_type": 0,
        "meta_classification_type": "U",
        "meta_norad_cat_id": 64786,
        "meta_element_set_no": 999,
        "meta_rev_at_epoch": 25530,
        "meta_bstar": 0.00042990708,
        "meta_mean_motion_dot": 0.0003436,
        "meta_mean_motion_ddot": 0,
        "tle_line1": "1 64786U 25149A   25344.85705990  .00034360  00000+0  42991-3 0  9996",
        "tle_line2": "2 64786  41.4684  28.1364 0008705  14.9689 345.1405 15.59054125255305"
      },
      "geometry": {
        "type": "Point",
        "coordinates": [
          -156.9968566422638,
          2.6449155535069364
        ]
      }
    },
    {
      "type": "Feature",
      "properties": {
        "norad_id": 65077,
        "name": "CREW DRAGON 11",
        "group": "stations",
        "lat": 41.49723493974368,
        "lon": -74.43777043825826,
        "alt_km": 413.3982861694594,
        "timestamp": "2025-12-11T05:00:25.096046+00:00",
        "meta_object_name": "CREW DRAGON 11",
        "meta_object_id": "2025-166A",
        "meta_epoch": "2025-12-10T22:17:24.112320",
        "meta_mean_motion": 15.49489378,
        "meta_eccentricity": 0.00033509,
        "meta_inclination": 51.6309,
        "meta_ra_of_asc_node": 151.4463,
        "meta_arg_of_pericenter": 232.8214,
        "meta_mean_anomaly": 127.2469,
        "meta_ephemeris_type": 0,
        "meta_classification_type": "U",
        "meta_norad_cat_id": 65077,
        "meta_element_set_no": 999,
        "meta_rev_at_epoch": 214,
        "meta_bstar": 0.00026508679,
        "meta_mean_motion_dot": 0.00014434,
        "meta_mean_motion_ddot": 0,
        "tle_line1": "1 65077U 25166A   25344.92875130  .00014434  00000+0  26509-3 0  9998",
        "tle_line2": "2 65077  51.6309 151.4463 0003350 232.8214 127.2469 15.49489378  2144"
      },
      "geometry": {
        "type": "Point",
        "coordinates": [
          -74.43777043825826,
          41.49723493974368
        ]
      }
    },
    {
      "type": "Feature",
      "properties": {
        "norad_id": 65304,
        "name": "DRAGON CRS-33",
        "group": "stations",
        "lat": 41.497234578136386,
        "lon": -74.4377697228419,
        "alt_km": 413.3982862012208,
        "timestamp": "2025-12-11T05:00:25.096056+00:00",
        "meta_object_name": "DRAGON CRS-33",
        "meta_object_id": "2025-186A",
        "meta_epoch": "2025-12-10T22:17:24.112320",
        "meta_mean_motion": 15.49489378,
        "meta_eccentricity": 0.00033509,
        "meta_inclination": 51.6309,
        "meta_ra_of_asc_node": 151.4463,
        "meta_arg_of_pericenter": 232.8214,
        "meta_mean_anomaly": 127.2469,
        "meta_ephemeris_type": 0,
        "meta_classification_type": "U",
        "meta_norad_cat_id": 65304,
        "meta_element_set_no": 999,
        "meta_rev_at_epoch": 11,
        "meta_bstar": 0.00026508679,
        "meta_mean_motion_dot": 0.00014434,
        "meta_mean_motion_ddot": 0,
        "tle_line1": "1 65304U 25186A   25344.92875130  .00014434  00000+0  26509-3 0  9993",
        "tle_line2": "2 65304  51.6309 151.4463 0003350 232.8214 127.2469 15.49489378   112"
      },
      "geometry": {
        "type": "Point",
        "coordinates": [
          -74.4377697228419,
          41.497234578136386
        ]
      }
    },
    {
      "type": "Feature",
      "properties": {
        "norad_id": 65586,
        "name": "PROGRESS-MS 32",
        "group": "stations",
        "lat": 41.497234144207745,
        "lon": -74.43776886434259,
        "alt_km": 413.39828623933136,
        "timestamp": "2025-12-11T05:00:25.096068+00:00",
        "meta_object_name": "PROGRESS-MS 32",
        "meta_object_id": "2025-204A",
        "meta_epoch": "2025-12-10T22:17:24.112320",
        "meta_mean_motion": 15.49489378,
        "meta_eccentricity": 0.00033509,
        "meta_inclination": 51.6309,
        "meta_ra_of_asc_node": 151.4463,
        "meta_arg_of_pericenter": 232.8214,
        "meta_mean_anomaly": 127.2469,
        "meta_ephemeris_type": 0,
        "meta_classification_type": "U",
        "meta_norad_cat_id": 65586,
        "meta_element_set_no": 999,
        "meta_rev_at_epoch": 27,
        "meta_bstar": 0.00026508679,
        "meta_mean_motion_dot": 0.00014434,
        "meta_mean_motion_ddot": 0,
        "tle_line1": "1 65586U 25204A   25344.92875130  .00014434  00000+0  26509-3 0  9996",
        "tle_line2": "2 65586  51.6309 151.4463 0003350 232.8214 127.2469 15.49489378   271"
      },
      "geometry": {
        "type": "Point",
        "coordinates": [
          -74.43776886434259,
          41.497234144207745
        ]
      }
    },
    {
      "type": "Feature",
      "properties": {
        "norad_id": 65616,
        "name": "CYGNUS NG-23",
        "group": "stations",
        "lat": 41.49723378260017,
        "lon": -74.43776814892576,
        "alt_km": 413.39828627109637,
        "timestamp": "2025-12-11T05:00:25.096078+00:00",
        "meta_object_name": "CYGNUS NG-23",
        "meta_object_id": "2025-208A",
        "meta_epoch": "2025-12-10T22:17:24.112320",
        "meta_mean_motion": 15.49489378,
        "meta_eccentricity": 0.00033509,
        "meta_inclination": 51.6309,
        "meta_ra_of_asc_node": 151.4463,
        "meta_arg_of_pericenter": 232.8214,
        "meta_mean_anomaly": 127.2469,
        "meta_ephemeris_type": 0,
        "meta_classification_type": "U",
        "meta_norad_cat_id": 65616,
        "meta_element_set_no": 999,
        "meta_rev_at_epoch": 22,
        "meta_bstar": 0.00026508679,
        "meta_mean_motion_dot": 0.00014434,
        "meta_mean_motion_ddot": 0,
        "tle_line1": "1 65616U 25208A   25344.92875130  .00014434  00000+0  26509-3 0  9994",
        "tle_line2": "2 65616  51.6309 151.4463 0003350 232.8214 127.2469 15.49489378   220"
      },
      "geometry": {
        "type": "Point",
        "coordinates": [
          -74.43776814892576,
          41.49723378260017
        ]
      }
    },
    {
      "type": "Feature",
      "properties": {
        "norad_id": 65729,
        "name": "DRAGONFLY",
        "group": "stations",
        "lat": -16.62438175694426,
        "lon": 129.91406846799308,
        "alt_km": 356.7213757729778,
        "timestamp": "2025-12-11T05:00:25.096088+00:00",
        "meta_object_name": "DRAGONFLY",
        "meta_object_id": "1998-067XH",
        "meta_epoch": "2025-12-10T19:56:18.630816",
        "meta_mean_motion": 15.71044104,
        "meta_eccentricity": 0.00065809,
        "meta_inclination": 51.6249,
        "meta_ra_of_asc_node": 145.5341,
        "meta_arg_of_pericenter": 265.1045,
        "meta_mean_anomaly": 94.9201,
        "meta_ephemeris_type": 0,
        "meta_classification_type": "U",
        "meta_norad_cat_id": 65729,
        "meta_element_set_no": 999,
        "meta_rev_at_epoch": 1286,
        "meta_bstar": 0.0016067518,
        "meta_mean_motion_dot": 0.00211019,
        "meta_mean_motion_ddot": 0,
        "tle_line1": "1 65729U 98067XH  25344.83077119  .00211019  00000+0  16068-2 0  9999",
        "tle_line2": "2 65729  51.6249 145.5341 0006580 265.1045  94.9201 15.71044104 12862"
      },
      "geometry": {
        "type": "Point",
        "coordinates": [
          129.91406846799308,
          -16.62438175694426
        ]
      }
    }
  ]
}